start=new Date('2022-02-18T00:00:00.000Z').valueOf();
sats=[{"OBJECT_TYPE":"PAYLOAD","REV_AT_EPOCH":"370","TLE_LINE2":"2 50849  53.2176 352.0960 0001670  39.7178 239.9000 15.53384661  3701","DECAY_DATE":null,"RA_OF_ASC_NODE":"352.0960","MEAN_MOTION_DDOT":"0.0000000000000","FILE":"3305402","ELEMENT_SET_NO":"999","TIME_SYSTEM":"UTC","REF_FRAME":"TEME","ECCENTRICITY":"0.00016700","CENTER_NAME":"EARTH","COUNTRY_CODE":"US","PERIOD":"92.701","RCS_SIZE":"LARGE","EPHEMERIS_TYPE":"0","SITE":"AFETR","SEMIMAJOR_AXIS":"6784.989","MEAN_ELEMENT_THEORY":"SGP4","OBJECT_NAME":"STARLINK-3311","EPOCH":"2022-02-17T22:00:00.999936","PERIAPSIS":"405.721","NORAD_CAT_ID":"50849","CLASSIFICATION_TYPE":"U","MEAN_ANOMALY":"239.9000","GP_ID":"196245983","INCLINATION":"53.2176","APOAPSIS":"407.987","LAUNCH_DATE":"2022-01-06","MEAN_MOTION":"15.53384661","TLE_LINE1":"1 50849U 22001AY  22048.91667824 -.00657051  00000-0 -11081-1 0  9998","ARG_OF_PERICENTER":"39.7178","BSTAR":"-0.01108100000000","OBJECT_ID":"2022-001AY","MEAN_MOTION_DOT":"-0.00657051"},{"RA_OF_ASC_NODE":"351.0540","MEAN_MOTION_DDOT":"0.0000000000000","DECAY_DATE":null,"TLE_LINE2":"2 50850  53.2164 351.0540 0001901  29.3326  39.7551 15.73240856  3706","REV_AT_EPOCH":"370","OBJECT_TYPE":"PAYLOAD","CENTER_NAME":"EARTH","COUNTRY_CODE":"US","REF_FRAME":"TEME","ECCENTRICITY":"0.00019010","TIME_SYSTEM":"UTC","FILE":"3305402","ELEMENT_SET_NO":"999","NORAD_CAT_ID":"50850","CLASSIFICATION_TYPE":"U","MEAN_ANOMALY":"39.7551","OBJECT_NAME":"STARLINK-3312","EPOCH":"2022-02-17T22:00:00.999936","PERIAPSIS":"348.365","SEMIMAJOR_AXIS":"6727.779","MEAN_ELEMENT_THEORY":"SGP4","PERIOD":"91.531","RCS_SIZE":"LARGE","EPHEMERIS_TYPE":"0","SITE":"AFETR","MEAN_MOTION_DOT":"-0.00073853","OBJECT_ID":"2022-001AZ","BSTAR":"-0.00052544000000","ARG_OF_PERICENTER":"29.3326","LAUNCH_DATE":"2022-01-06","TLE_LINE1":"1 50850U 22001AZ  22048.91667824 -.00073853  00000-0 -52544-3 0  9993","MEAN_MOTION":"15.73240856","GP_ID":"196246233","INCLINATION":"53.2164","APOAPSIS":"350.923"},{"TIME_SYSTEM":"UTC","ELEMENT_SET_NO":"999","FILE":"3305402","CENTER_NAME":"EARTH","COUNTRY_CODE":"US","REF_FRAME":"TEME","ECCENTRICITY":"0.00014410","TLE_LINE2":"2 50851  53.2176 352.0920 0001441  48.6637 257.0797 15.53852873  3704","DECAY_DATE":null,"REV_AT_EPOCH":"370","OBJECT_TYPE":"PAYLOAD","RA_OF_ASC_NODE":"352.0920","MEAN_MOTION_DDOT":"0.0000000000000","LAUNCH_DATE":"2022-01-06","MEAN_MOTION":"15.53852873","TLE_LINE1":"1 50851U 22001BA  22048.91667824 -.00657864  00000-0 -10908-1 0  9990","GP_ID":"196245482","INCLINATION":"53.2176","APOAPSIS":"406.469","MEAN_MOTION_DOT":"-0.00657864","ARG_OF_PERICENTER":"48.6637","OBJECT_ID":"2022-001BA","BSTAR":"-0.01090800000000","SEMIMAJOR_AXIS":"6783.626","MEAN_ELEMENT_THEORY":"SGP4","PERIOD":"92.673","RCS_SIZE":"LARGE","EPHEMERIS_TYPE":"0","SITE":"AFETR","NORAD_CAT_ID":"50851","CLASSIFICATION_TYPE":"U","MEAN_ANOMALY":"257.0797","OBJECT_NAME":"STARLINK-3314","PERIAPSIS":"404.514","EPOCH":"2022-02-17T22:00:00.999936"},{"REF_FRAME":"TEME","ECCENTRICITY":"0.00026860","CENTER_NAME":"EARTH","COUNTRY_CODE":"US","ELEMENT_SET_NO":"999","FILE":"3305402","TIME_SYSTEM":"UTC","RA_OF_ASC_NODE":"126.6571","MEAN_MOTION_DDOT":"0.0000000000000","OBJECT_TYPE":"PAYLOAD","DECAY_DATE":null,"TLE_LINE2":"2 51104  53.2168 126.6571 0002686  12.9607 204.4067 15.73215036  3675","REV_AT_EPOCH":"367","OBJECT_ID":"2022-005A","BSTAR":"-0.00050986000000","ARG_OF_PERICENTER":"12.9607","MEAN_MOTION_DOT":"-0.00071632","GP_ID":"196247112","INCLINATION":"53.2168","APOAPSIS":"351.524","LAUNCH_DATE":"2022-01-19","MEAN_MOTION":"15.73215036","TLE_LINE1":"1 51104U 22005A   22048.91667824 -.00071632  00000-0 -50986-3 0  9991","OBJECT_NAME":"STARLINK-3366","PERIAPSIS":"347.910","EPOCH":"2022-02-17T22:00:00.999936","NORAD_CAT_ID":"51104","CLASSIFICATION_TYPE":"U","MEAN_ANOMALY":"204.4067","PERIOD":"91.532","RCS_SIZE":"LARGE","EPHEMERIS_TYPE":"0","SITE":"AFETR","SEMIMAJOR_AXIS":"6727.852","MEAN_ELEMENT_THEORY":"SGP4"},{"CENTER_NAME":"EARTH","COUNTRY_CODE":"US","REF_FRAME":"TEME","ECCENTRICITY":"0.00027810","TIME_SYSTEM":"UTC","FILE":"3305402","ELEMENT_SET_NO":"999","RA_OF_ASC_NODE":"126.6692","MEAN_MOTION_DDOT":"0.0000000000000","REV_AT_EPOCH":"367","TLE_LINE2":"2 51105  53.2160 126.6692 0002781  14.5924 195.8073 15.73200618  3678","DECAY_DATE":null,"OBJECT_TYPE":"PAYLOAD","MEAN_MOTION_DOT":"-0.00025919","OBJECT_ID":"2022-005B","ARG_OF_PERICENTER":"14.5924","BSTAR":"-0.00018076000000","LAUNCH_DATE":"2022-01-19","TLE_LINE1":"1 51105U 22005B   22048.91667824 -.00025919  00000-0 -18076-3 0  9993","MEAN_MOTION":"15.73200618","GP_ID":"196247206","INCLINATION":"53.2160","APOAPSIS":"351.629","NORAD_CAT_ID":"51105","CLASSIFICATION_TYPE":"U","MEAN_ANOMALY":"195.8073","OBJECT_NAME":"STARLINK-3350","PERIAPSIS":"347.887","EPOCH":"2022-02-17T22:00:00.999936","MEAN_ELEMENT_THEORY":"SGP4","SEMIMAJOR_AXIS":"6727.893","PERIOD":"91.533","EPHEMERIS_TYPE":"0","RCS_SIZE":"LARGE","SITE":"AFETR"},{"INCLINATION":"53.2176","APOAPSIS":"351.423","GP_ID":"196247043","TLE_LINE1":"1 51106U 22005C   22048.91667824 -.00008073  00000-0 -53112-4 0  9997","MEAN_MOTION":"15.73208201","LAUNCH_DATE":"2022-01-19","ARG_OF_PERICENTER":"13.2929","BSTAR":"-0.00005311200000","OBJECT_ID":"2022-005C","MEAN_MOTION_DOT":"-0.00008073","SITE":"AFETR","EPHEMERIS_TYPE":"0","RCS_SIZE":"LARGE","PERIOD":"91.533","SEMIMAJOR_AXIS":"6727.872","MEAN_ELEMENT_THEORY":"SGP4","PERIAPSIS":"348.050","EPOCH":"2022-02-17T22:00:00.999936","OBJECT_NAME":"STARLINK-3176","MEAN_ANOMALY":"200.6582","CLASSIFICATION_TYPE":"U","NORAD_CAT_ID":"51106","FILE":"3305402","ELEMENT_SET_NO":"999","TIME_SYSTEM":"UTC","ECCENTRICITY":"0.00025070","REF_FRAME":"TEME","COUNTRY_CODE":"US","CENTER_NAME":"EARTH","OBJECT_TYPE":"PAYLOAD","DECAY_DATE":null,"TLE_LINE2":"2 51106  53.2176 126.6413 0002507  13.2929 200.6582 15.73208201  3704","REV_AT_EPOCH":"370","MEAN_MOTION_DDOT":"0.0000000000000","RA_OF_ASC_NODE":"126.6413"},{"ECCENTRICITY":"0.00025980","REF_FRAME":"TEME","COUNTRY_CODE":"US","CENTER_NAME":"EARTH","ELEMENT_SET_NO":"999","FILE":"3305402","TIME_SYSTEM":"UTC","RA_OF_ASC_NODE":"126.6710","MEAN_MOTION_DDOT":"0.0000000000000","OBJECT_TYPE":"PAYLOAD","TLE_LINE2":"2 51107  53.2155 126.6710 0002598  20.0421 189.7770 15.73230836  3676","REV_AT_EPOCH":"367","DECAY_DATE":null,"ARG_OF_PERICENTER":"20.0421","OBJECT_ID":"2022-005D","BSTAR":"-0.00082245000000","MEAN_MOTION_DOT":"-0.00114663","GP_ID":"196246950","APOAPSIS":"351.420","INCLINATION":"53.2155","TLE_LINE1":"1 51107U 22005D   22048.91667824 -.00114663  00000-0 -82245-3 0  9999","MEAN_MOTION":"15.73230836","LAUNCH_DATE":"2022-01-19","OBJECT_NAME":"STARLINK-3368","PERIAPSIS":"347.924","EPOCH":"2022-02-17T22:00:00.999936","NORAD_CAT_ID":"51107","MEAN_ANOMALY":"189.7770","CLASSIFICATION_TYPE":"U","RCS_SIZE":"LARGE","EPHEMERIS_TYPE":"0","PERIOD":"91.531","SITE":"AFETR","SEMIMAJOR_AXIS":"6727.807","MEAN_ELEMENT_THEORY":"SGP4"},{"RA_OF_ASC_NODE":"126.6692","MEAN_MOTION_DDOT":"0.0000000000000","OBJECT_TYPE":"PAYLOAD","REV_AT_EPOCH":"601","TLE_LINE2":"2 51108  53.2161 126.6692 0002621  14.9972 196.0452 15.73232135  6016","DECAY_DATE":null,"ECCENTRICITY":"0.00026210","REF_FRAME":"TEME","COUNTRY_CODE":"US","CENTER_NAME":"EARTH","ELEMENT_SET_NO":"999","FILE":"3305105","TIME_SYSTEM":"UTC","OBJECT_NAME":"STARLINK-3362","PERIAPSIS":"347.905","EPOCH":"2022-02-17T22:00:00.999936","NORAD_CAT_ID":"51108","MEAN_ANOMALY":"196.0452","CLASSIFICATION_TYPE":"U","RCS_SIZE":"LARGE","EPHEMERIS_TYPE":"0","PERIOD":"91.531","SITE":"AFETR","MEAN_ELEMENT_THEORY":"SGP4","SEMIMAJOR_AXIS":"6727.804","OBJECT_ID":"2022-005E","BSTAR":"-0.00037846000000","ARG_OF_PERICENTER":"14.9972","MEAN_MOTION_DOT":"-0.00053483","GP_ID":"196216548","APOAPSIS":"351.432","INCLINATION":"53.2161","MEAN_MOTION":"15.73232135","TLE_LINE1":"1 51108U 22005E   22048.91667824 -.00053483  00000-0 -37846-3 0  9999","LAUNCH_DATE":"2022-01-19"},{"RA_OF_ASC_NODE":"125.9162","MEAN_MOTION_DDOT":"0.0000000000000","OBJECT_TYPE":"PAYLOAD","DECAY_DATE":null,"TLE_LINE2":"2 51109  53.2173 125.9162 0002833  17.2223 189.7611 15.72682491  6035","REV_AT_EPOCH":"603","REF_FRAME":"TEME","ECCENTRICITY":"0.00028330","CENTER_NAME":"EARTH","COUNTRY_CODE":"US","FILE":"3305121","ELEMENT_SET_NO":"999","TIME_SYSTEM":"UTC","OBJECT_NAME":"STARLINK-3358","EPOCH":"2022-02-17T22:00:00.999936","PERIAPSIS":"349.330","NORAD_CAT_ID":"51109","CLASSIFICATION_TYPE":"U","MEAN_ANOMALY":"189.7611","PERIOD":"91.563","RCS_SIZE":"LARGE","EPHEMERIS_TYPE":"0","SITE":"AFETR","MEAN_ELEMENT_THEORY":"SGP4","SEMIMAJOR_AXIS":"6729.371","OBJECT_ID":"2022-005F","ARG_OF_PERICENTER":"17.2223","BSTAR":"0.00532930000000","MEAN_MOTION_DOT":"0.00805592","GP_ID":"196216582","INCLINATION":"53.2173","APOAPSIS":"353.142","LAUNCH_DATE":"2022-01-19","MEAN_MOTION":"15.72682491","TLE_LINE1":"1 51109U 22005F   22048.91667824  .00805592  00000-0  53293-2 0  9997"},{"REV_AT_EPOCH":"602","TLE_LINE2":"2 51110  53.2161 126.6662 0002951  14.8468 197.4226 15.73197263  6028","DECAY_DATE":null,"OBJECT_TYPE":"PAYLOAD","RA_OF_ASC_NODE":"126.6662","MEAN_MOTION_DDOT":"0.0000000000000","TIME_SYSTEM":"UTC","FILE":"3305106","ELEMENT_SET_NO":"999","CENTER_NAME":"EARTH","COUNTRY_CODE":"US","REF_FRAME":"TEME","ECCENTRICITY":"0.00029510","MEAN_ELEMENT_THEORY":"SGP4","SEMIMAJOR_AXIS":"6727.903","PERIOD":"91.533","RCS_SIZE":"LARGE","EPHEMERIS_TYPE":"0","SITE":"AFETR","NORAD_CAT_ID":"51110","CLASSIFICATION_TYPE":"U","MEAN_ANOMALY":"197.4226","OBJECT_NAME":"STARLINK-3344","EPOCH":"2022-02-17T22:00:00.999936","PERIAPSIS":"347.783","LAUNCH_DATE":"2022-01-19","TLE_LINE1":"1 51110U 22005G   22048.91667824  .00007409  00000-0  57178-4 0  9998","MEAN_MOTION":"15.73197263","GP_ID":"196216555","APOAPSIS":"351.753","INCLINATION":"53.2161","MEAN_MOTION_DOT":"0.00007409","BSTAR":"0.00005717800000","OBJECT_ID":"2022-005G","ARG_OF_PERICENTER":"14.8468"}];
